BEIDOU-3 M6             
1 43582U 18062B   23272.21661613 -.00000009  00000+0  00000+0 0  9999
2 43582  54.1723 216.0540 0005397   5.2991 354.6745  1.86229615 35163
BEIDOU-3 M12            
1 43602U 18067A   23272.15268608 -.00000009  00000+0  00000+0 0  9997
2 43602  54.2599 214.7137 0007280  15.6699 344.3220  1.86231410 34640
BEIDOU-3 M11            
1 43603U 18067B   23272.28651549 -.00000008  00000+0  00000+0 0  9991
2 43603  54.2571 214.6750 0004286   2.7151 357.2572  1.86231373 34678
BEIDOU-3 M13            
1 43622U 18072A   23271.70856356  .00000040  00000+0  00000+0 0  9992
2 43622  55.7897  95.6495 0004040 293.6056  66.4139  1.86231420 34178
BEIDOU-3 M14            
1 43623U 18072B   23272.11096674  .00000035  00000+0  00000+0 0  9992
2 43623  55.7920  95.6287 0002453 350.3495   9.7052  1.86231435 34179
BEIDOU-3 M16            
1 43647U 18078A   23272.27401510 -.00000081  00000+0  00000+0 0  9992
2 43647  54.8932 334.4807 0005951   4.0876 355.9828  1.86227146 33688
BEIDOU-3 M15            
1 43648U 18078B   23272.40396172 -.00000082  00000+0  00000+0 0  9996
2 43648  54.8889 334.4800 0002737  11.1369 348.9345  1.86232123 33708
BEIDOU-3 G1             
1 43683U 18085A   23272.57896678 -.00000290  00000+0  00000+0 0  9998
2 43683   1.5689 122.6609 0002503   1.4323 232.4969  1.00269329 18112
COSMOS 2529             
1 43687U 18086A   23272.16747810  .00000003  00000+0  00000+0 0  9992
2 43687  64.3140 226.1768 0010735 263.3036  96.5458  2.13101966 38141
BEIDOU-3 M17            
1 43706U 18093A   23271.47791848 -.00000013  00000+0  00000+0 0  9997
2 43706  54.2553 216.0087 0009641 283.0437  76.8150  1.86231813 33058
BEIDOU-3 M18            
1 43707U 18093B   23271.88111327 -.00000011  00000+0  00000+0 0  9999
2 43707  54.2559 215.9866 0008090 310.3287  49.5677  1.86229647 33055
NAVSTAR 77 (USA 289)    
1 43873U 18109A   23272.59007597  .00000049  00000+0  00000+0 0  9993
2 43873  55.2001 131.3668 0026193 190.2410 351.0389  2.00569619 35180
BEIDOU-3 IGSO-1         
1 44204U 19023A   23272.58871286 -.00000217  00000+0  00000+0 0  9999
2 44204  57.2589  47.9775 0024027 195.1765  96.8271  1.00274491 16390
BEIDOU-2 G8             
1 44231U 19027A   23272.55581612 -.00000258  00000+0  00000+0 0  9996
2 44231   2.0191  81.0214 0006764 130.7113 140.8807  1.00275412 16135
COSMOS 2534             
1 44299U 19030A   23272.61836330  .00000005  00000+0  00000+0 0  9990
2 44299  64.3864 226.0902 0012937 283.0729 196.9471  2.13101766 33791
BEIDOU-3 IGSO-2         
1 44337U 19035A   23272.35517686 -.00000142  00000+0  00000+0 0  9992
2 44337  55.1521 167.5725 0033049 195.9602 251.6696  1.00266498 15722
NAVSTAR 78 (USA 293)    
1 44506U 19056A   23272.42910535 -.00000100  00000+0  00000+0 0  9995
2 44506  55.8242  10.4479 0037731 186.4021 137.8144  2.00565716 30176
BEIDOU-3 M24            
1 44542U 19061A   23270.34177908 -.00000014  00000+0  00000+0 0  9993
2 44542  54.4828 216.2818 0008483 344.8941  15.0471  1.86231414 27283
BEIDOU-3 M23            
1 44543U 19061B   23272.36368729 -.00000007  00000+0  00000+0 0  9993
2 44543  54.4809 216.1825 0005727 331.4606 216.0000  1.86231659 27325
BEIDOU-3 IGSO-3         
1 44709U 19073A   23271.45670195 -.00000157  00000+0  00000+0 0  9998
2 44709  56.4950 291.4969 0035135 190.5516 169.4283  1.00274817 14502
BEIDOU-3 M22            
1 44793U 19078A   23271.79806846 -.00000079  00000+0  00000+0 0  9990
2 44793  54.7419 334.4612 0004751  11.9956 348.0812  1.86232084 26165
BEIDOU-3 M21            
1 44794U 19078B   23270.85467859 -.00000074  00000+0  00000+0 0  9999
2 44794  54.7162 334.4756 0002793 358.2508   1.8133  1.86232513 26150
COSMOS 2544             
1 44850U 19088A   23272.01201614  .00000066  00000+0  00000+0 0  9998
2 44850  65.0876 106.9643 0011146 249.2309 110.7253  2.13102119 29578
BEIDOU-3 M19            
1 44864U 19090A   23272.43071774  .00000031  00000+0  00000+0 0  9996
2 44864  55.7249  95.8106 0015214 274.0133 256.4478  1.86231607 25762
BEIDOU-3 M20            
1 44865U 19090B   23272.32418949  .00000032  00000+0  00000+0 0  9995
2 44865  55.7266  95.8470 0012942 289.2312 259.5888  1.86231563 25746
BEIDOU-3 G2             
1 45344U 20017A   23272.58106267 -.00000153  00000+0  00000+0 0  9999
2 45344   2.0643  17.4931 0003271 174.6541 105.1437  1.00272430 13311
COSMOS 2545             
1 45358U 20018A   23272.20882836 -.00000068  00000+0  00000+0 0  9992
2 45358  64.8357 347.0606 0010850 240.2721 119.6791  2.13102450 27526
BEIDOU-3 G3             
1 45807U 20040A   23272.58333633 -.00000368  00000+0  00000+0 0  9996
2 45807   0.5981 349.1857 0007266 319.6863  19.7316  1.00275782 12128
NAVSTAR 79 (USA 304)    
1 45854U 20041A   23272.26506976 -.00000021  00000+0  00000+0 0  9992
2 45854  55.9048  67.7399 0037192 186.7911 322.1782  2.00562698 24149
GALAXY 30 (G-30)        
1 46114U 20056C   23272.55474243  .00000024  00000+0  00000+0 0  9993
2 46114   0.0220 201.7980 0002616 356.3923 244.5727  1.00271041 11341
COSMOS 2547             
1 46805U 20075A   23272.39763630  .00000004  00000+0  00000+0 0  9992
2 46805  64.6140 225.6612 0008024 243.7505 116.1392  2.13102763 22776
NAVSTAR 80 (USA 309)    
1 46826U 20078A   23272.33984638 -.00000007  00000+0  00000+0 0  9999
2 46826  54.3007 251.0483 0036487 194.9053 343.6557  2.00562662 21611
NAVSTAR 81 (USA 319)    
1 48859U 21054A   23272.36112785 -.00000100  00000+0  00000+0 0  9995
2 48859  55.3425  12.2244 0012988 213.4619 163.5262  2.00571900 16869
QZS-1R                  
1 49336U 21096A   23272.37543785 -.00000229  00000+0  00000+0 0  9993
2 49336  35.4045  94.5299 0744956 269.7410 273.3765  1.00283891  7068
GSAT0223 (GALILEO 27)   
1 49809U 21116A   23267.41475998 -.00000085  00000+0  00000+0 0  9990
2 49809  57.2810   8.5598 0003498 188.0129 190.8503  1.70475882 11193
GSAT0224 (GALILEO 28)   
1 49810U 21116B   23271.98968628 -.00000101  00000+0  00000+0 0  9995
2 49810  57.2823   8.4340 0002908 184.8192 234.2616  1.70475851 11297
COSMOS 2557             
1 52984U 22075A   23272.09113780 -.00000070  00000+0  00000+0 0  9995
2 52984  64.7533 349.2212 0012569 275.2156  84.6972  2.13102188  9575
COSMOS 2559             
1 54031U 22130A   23272.50246297 -.00000072  00000+0  00000+0 0  9990
2 54031  64.7243 349.3336 0007577 221.3522 138.6470  2.13101391  7552
COSMOS 2564             
1 54377U 22161A   23272.22614214  .00000003  00000+0  00000+0 0  9997
2 54377  64.7549 225.7245 0010206 224.9080 134.9815  2.13102105  6499
NAVSTAR 82 (USA 343)    
1 55268U 23009A   23269.79232659 -.00000012  00000+0  00000+0 0  9997
2 55268  55.0873 187.5341 0004666  90.6249 271.5536  2.00554056  5301
BEIDOU-3 G4             
1 56564U 23066A   23272.50915792 -.00000129  00000+0  00000+0 0  9998
2 56564   2.7831 288.7045 0006507 219.6156 203.0267  1.00271623  1453
IRNSS-1J (NVS-01)       
1 56759U 23076A   23272.44766660 -.00000357  00000+0  00000+0 0  9999
2 56759   4.6763 271.5940 0006759 344.9210  42.1675  1.00274560  1177
